HST                     
1 20580U 90037B   26063.13533952  .00010319  00000+0  34382-3 0  9998
2 20580  28.4703  77.8870 0001724  70.3509 289.7272 15.29378725772468
POLAR                   
1 23802U 96013A   26061.74629649  .00000178  00000+0  00000+0 0  9990
2 23802  79.7411 228.2678 6362278 212.6879  83.6731  1.29845818143473
SWAS                    
1 25560U 98071A   26063.62912527  .00006440  00000+0  41448-3 0  9991
2 25560  69.8966 137.0023 0003623  21.1508 338.9805 15.08836294481499
CXO                     
1 25867U 99040B   26066.24394023  .00000830  00000+0  00000+0 0  9996
2 25867  54.5001 119.7161 7997895 310.7431   0.4039  0.37807298 16944
XMM-NEWTON              
1 25989U 99066A   26061.64181856  .00000062  00000+0  00000+0 0  9993
2 25989  65.0189 284.3763 4712552  66.8130 359.9781  0.50131664 22470
TERRA                   
1 25994U 99068A   26063.78487468  .00000631  00000+0  13779-3 0  9999
2 25994  97.9602 117.4068 0002392 163.1129 261.5498 14.61008869394363
CLUSTER II-FM7 (SAMBA)  
1 26410U 00041A   26063.25310773  .00003639  00000+0  00000+0 0  9992
2 26410 148.9920  34.5676 8908777 250.6745 359.7226  0.44785609 19832
CLUSTER II-FM8 (TANGO)  
1 26464U 00045B   26049.06287974  .00004776  00000+0  00000+0 0  9997
2 26464 149.0711  33.5376 8890045 249.4570 359.4916  0.44405995 19769
ODIN                    
1 26702U 01007A   26063.07607674  .00058508  00000+0  77727-3 0  9997
2 26702  97.4079  98.8926 0004097 154.0262 206.1200 15.58021445372960
TIMED                   
1 26998U 01055B   26063.49332215  .00001962  00000+0  18293-3 0  9994
2 26998  74.0660  85.7795 0002976 281.4853  78.5997 14.95004039315172
CORIOLIS                
1 27640U 03001A   26063.48511115  .00000218  00000+0  12317-3 0  9993
2 27640  98.7161  71.9570 0014543 150.8057 209.3936 14.19910551199361
SORCE                   
1 27651U 03004A   26063.58311661  .00004757  00000+0  35679-3 0  9991
2 27651  39.9904 138.2071 0016533  16.5443 343.5888 15.03051755256150
MOST                    
1 27843U 03031D   26063.46011433  .00000132  00000+0  80426-4 0  9999
2 27843  98.7082  72.6337 0009648 188.6944 171.4068 14.21297664175838
SCISAT 1                
1 27858U 03036A   26063.34764469  .00001400  00000+0  18401-3 0  9993
2 27858  73.9316  19.6240 0005875 113.1993 246.9803 14.81299784215929
SWIFT                   
1 28485U 04047A   26063.81034094  .00051743  00000+0  62838-3 0  9997
2 28485  20.5530 264.3196 0003010 328.0260  32.0001 15.58801779170500
HINODE (SOLAR-B)        
1 29479U 06041A   26063.80183654  .00000991  00000+0  17937-3 0  9992
2 29479  98.0626  81.4680 0016158 258.3212 101.6180 14.68465034 39555
SHIJIAN-6 02A (SJ-6 02A)
1 29505U 06046A   26063.89197176  .00004713  00000+0  25167-3 0  9990
2 29505  97.6506 104.1991 0004578 124.3841 235.7825 15.15611758 56461
